H1 CPF  1  DLR 2022 02 22 10  5532 technosat            
H2  1704205 6203    42829 2022 02 22 00 00 00 2022 03 01 00 00 00    60 1 1  0 0 0
H9
10 0 59638  57600.000000  0        816625.291       -390175.836      -6922973.794
10 0 59638  57660.000000  0        596755.591       -790047.114      -6910669.400
10 0 59638  57720.000000  0        370918.983      -1184670.066      -6869305.202
10 0 59638  57780.000000  0        140111.026      -1572347.755      -6799044.677
10 0 59638  57840.000000  0        -94636.586      -1951419.453      -6700171.266
10 0 59638  57900.000000  0       -332260.521      -2320267.680      -6573087.569
10 0 59638  57960.000000  0       -571670.509      -2677325.114      -6418313.978
10 0 59638  58020.000000  0       -811754.200      -3021081.246      -6236486.796
10 0 59638  58080.000000  0      -1051382.165      -3350088.737      -6028355.963
10 0 59638  58140.000000  0      -1289413.078      -3662969.593      -5794782.385
10 0 59638  58200.000000  0      -1524699.044      -3958421.069      -5536734.804
10 0 59638  58260.000000  0      -1756091.057      -4235221.331      -5255286.217
10 0 59638  58320.000000  0      -1982444.566      -4492234.803      -4951609.798
10 0 59638  58380.000000  0      -2202625.127      -4728417.137      -4626974.349
10 0 59638  58440.000000  0      -2415514.089      -4942819.786      -4282739.297
10 0 59638  58500.000000  0      -2620014.278      -5134594.154      -3920349.263
10 0 59638  58560.000000  0      -2815055.659      -5302995.312      -3541328.232
10 0 59638  58620.000000  0      -2999600.948      -5447385.281      -3147273.328
10 0 59638  58680.000000  0      -3172651.165      -5567235.827      -2739848.196
10 0 59638  58740.000000  0      -3333251.068      -5662130.755      -2320776.035
10 0 59638  58800.000000  0      -3480494.458      -5731767.685      -1891832.277
10 0 59638  58860.000000  0      -3613529.290      -5775959.270      -1454836.946
10 0 59638  58920.000000  0      -3731562.541      -5794633.849      -1011646.754
10 0 59638  58980.000000  0      -3833864.820      -5787835.511       -564146.960
10 0 59638  59040.000000  0      -3919774.678      -5755723.580       -114243.077
10 0 59638  59100.000000  0      -3988702.615      -5698571.537        336147.548
10 0 59638  59160.000000  0      -4040134.743      -5616765.365        785104.273
10 0 59638  59220.000000  0      -4073636.081      -5510801.308       1230711.729
10 0 59638  59280.000000  0      -4088853.435      -5381283.053       1671068.398
10 0 59638  59340.000000  0      -4085517.847      -5228918.360       2104295.082
10 0 59638  59400.000000  0      -4063446.624      -5054515.201       2528543.244
10 0 59638  59460.000000  0      -4022544.948      -4858977.422       2942003.193
10 0 59638  59520.000000  0      -3962807.026      -4643299.959       3342912.088
10 0 59638  59580.000000  0      -3884316.777      -4408563.616       3729561.704
10 0 59638  59640.000000  0      -3787248.069      -4155929.441       4100305.917
10 0 59638  59700.000000  0      -3671864.470      -3886632.708       4453567.863
10 0 59638  59760.000000  0      -3538518.550      -3601976.597       4787846.679
10 0 59638  59820.000000  0      -3387650.777      -3303325.638       5101723.859
10 0 59638  59880.000000  0      -3219787.960      -2992098.931       5393869.248
10 0 59638  59940.000000  0      -3035541.250      -2669763.180       5663046.569
10 0 59638  60000.000000  0      -2835603.759      -2337825.615       5908118.532
10 0 59638  60060.000000  0      -2620747.780      -1997826.760       6128051.520
10 0 59638  60120.000000  0      -2391821.655      -1651333.121       6321919.800
10 0 59638  60180.000000  0      -2149746.232      -1299929.787       6488909.314
10 0 59638  60240.000000  0      -1895510.904       -945212.963       6628320.853
10 0 59638  60300.000000  0      -1630169.353       -588782.601       6739572.623
10 0 59638  60360.000000  0      -1354835.095       -232235.220       6822202.309
10 0 59638  60420.000000  0      -1070676.790        122843.190       6875868.841
10 0 59638  60480.000000  0       -778913.219        474884.249       6900353.682
10 0 59638  60540.000000  0       -480807.993        822344.123       6895561.567
10 0 59638  60600.000000  0       -177664.041       1163710.289       6861520.747
10 0 59638  60660.000000  0        129182.104       1497508.099       6798382.764
10 0 59638  60720.000000  0        438366.244       1822307.169       6706421.719
10 0 59638  60780.000000  0        748502.594       2136727.473       6586032.977
10 0 59638  60840.000000  0       1058189.958       2439445.134       6437731.477
10 0 59638  60900.000000  0       1366018.053       2729197.979       6262149.578
10 0 59638  60960.000000  0       1670573.887       3004790.804       6060034.466
10 0 59638  61020.000000  0       1970448.242       3265100.361       5832245.080
10 0 59638  61080.000000  0       2264242.186       3509079.985       5579748.586
10 0 59638  61140.000000  0       2550573.664       3735763.898       5303616.403
10 0 59638  61200.000000  0       2828084.066       3944271.110       5005019.689
10 0 59638  61260.000000  0       3095444.675       4133808.838       4685224.390
10 0 59638  61320.000000  0       3351362.981       4303675.541       4345586.021
10 0 59638  61380.000000  0       3594588.930       4453263.593       3987544.044
10 0 59638  61440.000000  0       3823921.054       4582061.553       3612615.958
10 0 59638  61500.000000  0       4038212.704       4689656.119       3222390.909
10 0 59638  61560.000000  0       4236377.894       4775733.307       2818522.644
10 0 59638  61620.000000  0       4417396.581       4840079.174       2402722.446
10 0 59638  61680.000000  0       4580319.829       4882580.227       1976751.906
10 0 59638  61740.000000  0       4724274.772       4903223.287       1542415.434
10 0 59638  61800.000000  0       4848469.340       4902094.930       1101552.523
10 0 59638  61860.000000  0       4952196.533       4879380.398        656029.697
10 0 59638  61920.000000  0       5034838.185       4835361.976        207732.377
10 0 59638  61980.000000  0       5095868.302       4770416.890       -241443.252
10 0 59638  62040.000000  0       5134856.014       4685014.790       -689598.381
10 0 59638  62100.000000  0       5151468.069       4579714.798      -1134839.719
10 0 59638  62160.000000  0       5145470.897       4455162.159      -1575287.591
10 0 59638  62220.000000  0       5116732.207       4312084.503      -2009083.963
10 0 59638  62280.000000  0       5065222.093       4151287.724      -2434400.365
10 0 59638  62340.000000  0       4991013.620       3973651.507      -2849445.617
10 0 59638  62400.000000  0       4894282.949       3780124.579      -3252473.360
10 0 59638  62460.000000  0       4775308.950       3571719.680      -3641789.375
10 0 59638  62520.000000  0       4634472.323       3349508.276      -4015758.612
10 0 59638  62580.000000  0       4472254.294       3114615.042      -4372811.932
10 0 59638  62640.000000  0       4289234.833       2868212.129      -4711452.511
10 0 59638  62700.000000  0       4086090.451       2611513.297      -5030261.880
10 0 59638  62760.000000  0       3863591.571       2345767.946      -5327905.616
10 0 59638  62820.000000  0       3622599.471       2072255.052      -5603138.674
10 0 59638  62880.000000  0       3364062.811       1792277.064      -5854810.295
10 0 59638  62940.000000  0       3089013.785       1507153.761      -6081868.524
10 0 59638  63000.000000  0       2798563.921       1218216.100      -6283364.282
10 0 59638  63060.000000  0       2493899.566        926800.115      -6458455.008
10 0 59638  63120.000000  0       2176277.055        634240.877      -6606407.875
10 0 59638  63180.000000  0       1847017.648        341866.546      -6726602.590
10 0 59638  63240.000000  0       1507502.206         50992.509      -6818533.880
10 0 59638  63300.000000  0       1159165.450       -237084.441      -6881813.575
10 0 59638  63360.000000  0        803489.962       -521091.774      -6916172.064
10 0 59638  63420.000000  0        442000.066       -799786.680      -6921459.323
10 0 59638  63480.000000  0         76255.516      -1071961.357      -6897645.572
10 0 59638  63540.000000  0       -292155.002      -1336448.093      -6844821.509
10 0 59638  63600.000000  0       -661620.566      -1592124.165      -6763198.182
10 0 59638  63660.000000  0      -1030514.915      -1837916.560      -6653106.372
10 0 59638  63720.000000  0      -1397203.448      -2072806.480      -6514995.495
10 0 59638  63780.000000  0      -1760050.324      -2295833.570      -6349432.012
10 0 59638  63840.000000  0      -2117425.591      -2506099.832      -6157097.444
10 0 59638  63900.000000  0      -2467712.403      -2702773.304      -5938785.957
10 0 59638  63960.000000  0      -2809314.274      -2885091.456      -5695401.545
10 0 59638  64020.000000  0      -3140662.415      -3052364.325      -5427954.741
10 0 59638  64080.000000  0      -3460223.061      -3203977.328      -5137558.804
10 0 59638  64140.000000  0      -3766504.696      -3339393.689      -4825425.395
10 0 59638  64200.000000  0      -4058065.154      -3458156.496      -4492859.864
10 0 59638  64260.000000  0      -4333518.597      -3559890.404      -4141256.112
10 0 59638  64320.000000  0      -4591542.360      -3644302.971      -3772091.019
10 0 59638  64380.000000  0      -4830883.579      -3711185.594      -3386918.445
10 0 59638  64440.000000  0      -5050365.565      -3760414.044      -2987362.821
10 0 59638  64500.000000  0      -5248893.904      -3791948.593      -2575112.372
10 0 59638  64560.000000  0      -5425462.202      -3805833.696      -2151911.950
10 0 59638  64620.000000  0      -5579157.433      -3802197.242      -1719555.608
10 0 59638  64680.000000  0      -5709164.935      -3781249.421      -1279878.893
10 0 59638  64740.000000  0      -5814772.938      -3743281.162       -834750.834
99
